{
    "links": {
        "self": "http://www.neowsapp.com/rest/v1/neo/3893380?api_key=iIulBulltgU6a56xZRHN4H3l9WmuAYTsLGpBGhQ2"
    },
    "id": "3893380",
    "neo_reference_id": "3893380",
    "name": "(2019 WU)",
    "designation": "2019 WU",
    "nasa_jpl_url": "http://ssd.jpl.nasa.gov/sbdb.cgi?sstr=3893380",
    "absolute_magnitude_h": 27.2,
    "estimated_diameter": {
        "kilometers": {
            "estimated_diameter_min": 0.0096506147,
            "estimated_diameter_max": 0.0215794305
        },
        "meters": {
            "estimated_diameter_min": 9.6506146958,
            "estimated_diameter_max": 21.5794304844
        },
        "miles": {
            "estimated_diameter_min": 0.0059966121,
            "estimated_diameter_max": 0.0134088323
        },
        "feet": {
            "estimated_diameter_min": 31.6621227185,
            "estimated_diameter_max": 70.7986587106
        }
    },
    "is_potentially_hazardous_asteroid": false,
    "close_approach_data": [
        {
            "close_approach_date": "2019-11-24",
            "close_approach_date_full": "2019-Nov-24 10:56",
            "epoch_date_close_approach": 1574592960000,
            "relative_velocity": {
                "kilometers_per_second": "11.4365750366",
                "kilometers_per_hour": "41171.6701318259",
                "miles_per_hour": "25582.4746994115"
            },
            "miss_distance": {
                "astronomical": "0.0145214041",
                "lunar": "5.6488261949",
                "kilometers": "2172371.122769267",
                "miles": "1349848.8223672046"
            },
            "orbiting_body": "Earth"
        }
    ],
    "orbital_data": {
        "orbit_id": "4",
        "orbit_determination_date": "2019-12-01 04:52:09",
        "first_observation_date": "2019-11-19",
        "last_observation_date": "2019-11-28",
        "data_arc_in_days": 9,
        "observations_used": 29,
        "orbit_uncertainty": "7",
        "minimum_orbit_intersection": ".00171215",
        "jupiter_tisserand_invariant": "3.291",
        "epoch_osculation": "2459000.5",
        "eccentricity": ".6110205558188717",
        "semi_major_axis": "2.332179655249509",
        "inclination": ".6503621285153115",
        "ascending_node_longitude": "73.16501050882694",
        "orbital_period": "1300.892562006323",
        "perihelion_distance": ".9071699460294894",
        "perihelion_argument": "28.97310481253358",
        "aphelion_distance": "3.757189364469528",
        "perihelion_time": "2458841.252368358015",
        "mean_anomaly": "44.06908692190365",
        "mean_motion": ".2767330758235592",
        "equinox": "J2000",
        "orbit_class": {
            "orbit_class_type": "APO",
            "orbit_class_description": "Near-Earth asteroid orbits which cross the Earth’s orbit similar to that of 1862 Apollo",
            "orbit_class_range": "a (semi-major axis) > 1.0 AU; q (perihelion) < 1.017 AU"
        }
    },
    "is_sentry_object": false
}